SIRION PATHFINDER-2     
1 43759U 18099B   26168.11568701  .00003265  00000+0  18059-3 0  9998
2 43759  97.4249 217.1748 0007203 305.6324  54.4237 15.14547360412615
CORVUS BC4              
1 43767U 18099K   26168.05600138  .00003821  00000+0  22299-3 0  9990
2 43767  97.4063 211.0401 0008268  13.6143 346.5309 15.12495924412389
M2 PATHFINDER           
1 45727U 20037E   26168.51237316  .00001314  00000+0  97870-4 0  9991
2 45727  97.8146 359.7479 0012522 145.1689 215.0359 15.04676892325544
NETSAT-4                
1 46504U 20068U   26167.99517375  .00014852  00000+0  32924-3 0  9995
2 46504  97.8600 176.2205 0003869 339.1493  20.9595 15.43860202315743
NETSAT-3                
1 46505U 20068V   26168.52021461  .00014868  00000+0  34277-3 0  9992
2 46505  97.8649 175.0036 0004166   0.5703 359.5547 15.42688001315731
NETSAT-1                
1 46506U 20068W   26167.93981441  .00010990  00000+0  32980-3 0  9991
2 46506  97.8742 168.7115 0005062  33.4100 326.7460 15.34639447315264
NETSAT-2                
1 46507U 20068X   26168.48856875  .00018610  00000+0  38293-3 0  9995
2 46507  97.8608 176.6489 0003412  26.1763 333.9656 15.46009035315780
GREENCUBE (IO-117)      
1 53109U 22080E   26164.29338770 -.00000003  00000+0  00000+0 0  9990
2 53109  70.1444 299.5995 0008910 290.4576  69.5127  6.42583230 91811
SITRO-AIS 5 (KATYS)     
1 57176U 23091L   26168.46253531  .00010091  00000+0  35505-3 0  9994
2 57176  97.5058 232.3644 0012779 102.6011 257.6659 15.29462514164384
SITRO-AIS 6 (CHIRKIN)   
1 57192U 23091AC  26168.50769303  .00007949  00000+0  31181-3 0  9990
2 57192  97.5065 231.5275 0013105 105.5523 254.7163 15.25939631164333
SITRO-AIS 8 (ANOKHIN)   
1 57193U 23091AD  26168.47908043  .00011052  00000+0  35784-3 0  9996
2 57193  97.5053 233.9709 0011786  99.1964 261.0611 15.32141789164492
SITRO-AIS 7 (FARTUSHNIY)
1 57194U 23091AE  26168.44531852  .00008188  00000+0  32412-3 0  9995
2 57194  97.5063 231.2898 0012952 106.5859 253.6803 15.25627172164314
SITRO-AIS 10 (BURDAEV)  
1 57199U 23091AK  26168.50939962  .00016334  00000+0  42967-3 0  9999
2 57199  97.5080 239.0592 0007481  79.5736 280.6351 15.38622481164814
SITRO-AIS 9 (SHCHUKIN)  
1 57201U 23091AM  26168.47084645  .00015650  00000+0  41843-3 0  9990
2 57201  97.5078 238.7496 0007756  79.6350 280.5769 15.38128336164791
SITRO-AIS 12 (SMIRENNIY)
1 57204U 23091AQ  26168.46141378  .00015409  00000+0  40820-3 0  9995
2 57204  97.5091 239.2070 0007284  74.8279 285.3771 15.38421469164818
SITRO-AIS 11 (SHEFFER)  
1 57208U 23091AU  26168.47475311  .00015555  00000+0  40641-3 0  9990
2 57208  97.5088 239.4676 0007155  74.6440 285.5595 15.38845351164835
SITRO-AIS 25            
1 59066U 24039R   26168.51016806  .00002169  00000+0  17107-3 0  9990
2 59066  95.3906 235.3146 0143411 327.6070  31.6410 14.93514356124770
SITRO-AIS 26            
1 59067U 24039S   26168.51158488  .00002160  00000+0  17121-3 0  9991
2 59067  95.3906 235.2131 0143769 328.1934  31.0666 14.93310369124769
SITRO-AIS 27            
1 59068U 24039T   26168.48173843  .00002016  00000+0  15860-3 0  9998
2 59068  95.3914 235.4644 0142734 326.9432  32.2930 14.93732406124789
SITRO-AIS 28            
1 59071U 24039U   26168.52616509  .00002483  00000+0  19451-3 0  9996
2 59071  95.3911 235.5422 0142609 326.5980  32.6309 14.93765085124794
GRBBETA                 
1 60237U 24128C   26168.48551436  .00002424  00000+0  17435-3 0  9998
2 60237  61.9882 215.2195 0040618 134.7304 225.7108 15.06640908106315
OOV-CUBE (TUBSAT-30)    
1 60240U 24128F   26168.52124568  .00001494  00000+0  12465-3 0  9993
2 60240  61.9933 224.4082 0044597 133.8376 226.6415 15.02774646106169
ROBUSTA-3A (MEDITERRAN*)
1 60243U 24128J   26168.46558753  .00004100  00000+0  24807-3 0  9996
2 60243  61.9846 207.2597 0041366 128.0062 232.4780 15.11678475106460
LASARSAT                
1 62391U 24247Q   26167.97623209  .00026221  00000+0  52389-3 0  9992
2 62391  44.9742 263.4006 0008180 330.0323  30.0098 15.46364825 83280
CROCUBE                 
1 62394U 24247T   26165.58698051  .00034757  00000+0  65094-3 0  9997
2 62394  44.9722 274.1999 0008187 320.7516  39.2780 15.48102542 82947
FORESAIL-1 PRIME        
1 66778U 25276DS  26167.99656515  .00004149  00000+0  20320-3 0  9991
2 66778  97.4201 241.2708 0003952 103.8378 256.3296 15.18701638 30378
KNACKSAT-2              
1 67683U 98067XZ  26167.64582772  .00039403  00000+0  48230-3 0  9991
2 67683  51.6312 297.1999 0009189 212.7793 147.2631 15.59934910 20196
