OBJECT_NAME,OBJECT_ID,EPOCH,MEAN_MOTION,ECCENTRICITY,INCLINATION,RA_OF_ASC_NODE,ARG_OF_PERICENTER,MEAN_ANOMALY,EPHEMERIS_TYPE,CLASSIFICATION_TYPE,NORAD_CAT_ID,ELEMENT_SET_NO,REV_AT_EPOCH,BSTAR,MEAN_MOTION_DOT,MEAN_MOTION_DDOT
SIRION PATHFINDER-2,2018-099B,2026-06-17T02:46:35.357664,15.14547360,.0007203,97.4249,217.1748,305.6324,54.4237,0,U,43759,999,41261,.18059E-3,.3265E-4,0
CORVUS BC4,2018-099K,2026-06-17T01:20:38.519232,15.12495924,.0008268,97.4063,211.0401,13.6143,346.5309,0,U,43767,999,41238,.22299E-3,.3821E-4,0
M2 PATHFINDER,2020-037E,2026-06-17T12:17:49.041024,15.04676892,.0012522,97.8146,359.7479,145.1689,215.0359,0,U,45727,999,32554,.9787E-4,.1314E-4,0
NETSAT-4,2020-068U,2026-06-16T23:53:03.012000,15.43860202,.0003869,97.8600,176.2205,339.1493,20.9595,0,U,46504,999,31574,.32924E-3,.14852E-3,0
NETSAT-3,2020-068V,2026-06-17T12:29:06.542304,15.42688001,.0004166,97.8649,175.0036,0.5703,359.5547,0,U,46505,999,31573,.34277E-3,.14868E-3,0
NETSAT-1,2020-068W,2026-06-16T22:33:19.965024,15.34639447,.0005062,97.8742,168.7115,33.4100,326.7460,0,U,46506,999,31526,.3298E-3,.1099E-3,0
NETSAT-2,2020-068X,2026-06-17T11:43:32.340000,15.46009035,.0003412,97.8608,176.6489,26.1763,333.9656,0,U,46507,999,31578,.38293E-3,.1861E-3,0
GREENCUBE (IO-117),2022-080E,2026-06-13T07:02:28.697280,6.42583230,.00089108,70.1444,299.5995,290.4576,69.5127,0,U,53109,999,9181,0,-.3E-7,0
SITRO-AIS 5 (KATYS),2023-091L,2026-06-17T11:06:03.050784,15.29462514,.0012779,97.5058,232.3644,102.6011,257.6659,0,U,57176,999,16438,.35505E-3,.10091E-3,0
SITRO-AIS 6 (CHIRKIN),2023-091AC,2026-06-17T12:11:04.677792,15.25939631,.0013105,97.5065,231.5275,105.5523,254.7163,0,U,57192,999,16433,.31181E-3,.7949E-4,0
SITRO-AIS 8 (ANOKHIN),2023-091AD,2026-06-17T11:29:52.549152,15.32141789,.0011786,97.5053,233.9709,99.1964,261.0611,0,U,57193,999,16449,.35784E-3,.11052E-3,0
SITRO-AIS 7 (FARTUSHNIY),2023-091AE,2026-06-17T10:41:15.520128,15.25627172,.0012952,97.5063,231.2898,106.5859,253.6803,0,U,57194,999,16431,.32412E-3,.8188E-4,0
SITRO-AIS 10 (BURDAEV),2023-091AK,2026-06-17T12:13:32.127168,15.38622481,.0007481,97.5080,239.0592,79.5736,280.6351,0,U,57199,999,16481,.42967E-3,.16334E-3,0
SITRO-AIS 9 (SHCHUKIN),2023-091AM,2026-06-17T11:18:01.133280,15.38128336,.0007756,97.5078,238.7496,79.6350,280.5769,0,U,57201,999,16479,.41843E-3,.1565E-3,0
SITRO-AIS 12 (SMIRENNIY),2023-091AQ,2026-06-17T11:04:26.150592,15.38421469,.0007284,97.5091,239.2070,74.8279,285.3771,0,U,57204,999,16481,.4082E-3,.15409E-3,0
SITRO-AIS 11 (SHEFFER),2023-091AU,2026-06-17T11:23:38.668704,15.38845351,.0007155,97.5088,239.4676,74.6440,285.5595,0,U,57208,999,16483,.40641E-3,.15555E-3,0
SITRO-AIS 25,2024-039R,2026-06-17T12:14:38.520384,14.93514356,.0143411,95.3906,235.3146,327.6070,31.6410,0,U,59066,999,12477,.17107E-3,.2169E-4,0
SITRO-AIS 26,2024-039S,2026-06-17T12:16:40.933632,14.93310369,.0143769,95.3906,235.2131,328.1934,31.0666,0,U,59067,999,12476,.17121E-3,.216E-4,0
SITRO-AIS 27,2024-039T,2026-06-17T11:33:42.200352,14.93732406,.0142734,95.3914,235.4644,326.9432,32.2930,0,U,59068,999,12478,.1586E-3,.2016E-4,0
SITRO-AIS 28,2024-039U,2026-06-17T12:37:40.663776,14.93765085,.0142609,95.3911,235.5422,326.5980,32.6309,0,U,59071,999,12479,.19451E-3,.2483E-4,0
GRBBETA,2024-128C,2026-06-17T11:39:08.440704,15.06640908,.0040618,61.9882,215.2195,134.7304,225.7108,0,U,60237,999,10631,.17435E-3,.2424E-4,0
OOV-CUBE (TUBSAT-30),2024-128F,2026-06-17T12:30:35.626752,15.02774646,.0044597,61.9933,224.4082,133.8376,226.6415,0,U,60240,999,10616,.12465E-3,.1494E-4,0
ROBUSTA-3A (MEDITERRANEE),2024-128J,2026-06-17T11:10:26.762592,15.11678475,.0041366,61.9846,207.2597,128.0062,232.4780,0,U,60243,999,10646,.24807E-3,.41E-4,0
LASARSAT,2024-247Q,2026-06-16T23:25:46.452576,15.46364825,.000818,44.9742,263.4006,330.0323,30.0098,0,U,62391,999,8328,.52389E-3,.26221E-3,0
CROCUBE,2024-247T,2026-06-14T14:05:15.116064,15.48102542,.0008187,44.9722,274.1999,320.7516,39.2780,0,U,62394,999,8294,.65094E-3,.34757E-3,0
FORESAIL-1 PRIME,2025-276DS,2026-06-16T23:55:03.228960,15.18701638,.0003952,97.4201,241.2708,103.8378,256.3296,0,U,66778,999,3037,.2032E-3,.4149E-4,0
KNACKSAT-2,1998-067XZ,2026-06-16T15:29:59.515008,15.59934910,.0009189,51.6312,297.1999,212.7793,147.2631,0,U,67683,999,2019,.4823E-3,.39403E-3,0
